H1 CPF  1  DLR 2022 12 02 13  8362 technosat            
H2  1704205 6203    42829 2022 12 02 00 00 00 2022 12 09 00 00 00    60 1 1  0 0 0
H9
10 0 59920  21600.000000  0       3975739.899        600254.938       5685134.322
10 0 59920  21660.000000  0       3626730.721        429069.209       5927464.004
10 0 59920  21720.000000  0       3260937.741        259201.491       6144619.495
10 0 59920  21780.000000  0       2879917.278         91507.943       6335676.097
10 0 59920  21840.000000  0       2485297.428        -73178.214       6499819.474
10 0 59920  21900.000000  0       2078771.044       -234050.779       6636349.033
10 0 59920  21960.000000  0       1662088.442       -390334.473       6744680.912
10 0 59920  22020.000000  0       1237049.766       -541288.693       6824350.499
10 0 59920  22080.000000  0        805497.086       -686211.026       6875014.324
10 0 59920  22140.000000  0        369306.458       -824440.496       6896451.483
10 0 59920  22200.000000  0        -69620.275       -955360.603       6888564.676
10 0 59920  22260.000000  0       -509363.776      -1078402.128       6851380.644
10 0 59920  22320.000000  0       -947995.624      -1193045.660       6785050.182
10 0 59920  22380.000000  0      -1383586.805      -1298823.830       6689847.588
10 0 59920  22440.000000  0      -1814216.188      -1395323.250       6566169.641
10 0 59920  22500.000000  0      -2237979.004      -1482186.134       6414534.106
10 0 59920  22560.000000  0      -2652995.289      -1559111.645       6235577.845
10 0 59920  22620.000000  0      -3057418.406      -1625856.975       6030054.500
10 0 59920  22680.000000  0      -3449443.572      -1682238.132       5798831.528
10 0 59920  22740.000000  0      -3827316.135      -1728130.418       5542886.667
10 0 59920  22800.000000  0      -4189339.676      -1763468.600       5263303.968
10 0 59920  22860.000000  0      -4533883.941      -1788246.718       4961269.355
10 0 59920  22920.000000  0      -4859392.526      -1802517.602       4638065.665
10 0 59920  22980.000000  0      -5164390.205      -1806392.041       4295067.212
10 0 59920  23040.000000  0      -5447489.926      -1800037.614       3933733.977
10 0 59920  23100.000000  0      -5707399.433      -1783677.237       3555605.388
10 0 59920  23160.000000  0      -5942927.487      -1757587.404       3162293.733
10 0 59920  23220.000000  0      -6152989.666      -1722096.162       2755477.253
10 0 59920  23280.000000  0      -6336613.772      -1677580.826       2336892.872
10 0 59920  23340.000000  0      -6492944.722      -1624465.388       1908328.491
10 0 59920  23400.000000  0      -6621248.739      -1563217.654       1471614.980
10 0 59920  23460.000000  0      -6720916.917      -1494346.149       1028618.070
10 0 59920  23520.000000  0      -6791468.258      -1418396.799        581230.072
10 0 59920  23580.000000  0      -6832552.056      -1335949.393        131361.420
10 0 59920  23640.000000  0      -6843949.589      -1247613.895       -319067.860
10 0 59920  23700.000000  0      -6825575.169      -1154026.610       -768136.703
10 0 59920  23760.000000  0      -6777476.511      -1055846.216      -1213931.551
10 0 59920  23820.000000  0      -6699834.420       -953749.679      -1654554.795
10 0 59920  23880.000000  0      -6592961.853       -848428.139      -2088133.081
10 0 59920  23940.000000  0      -6457302.377       -740582.774      -2512825.495
10 0 59920  24000.000000  0      -6293427.972       -630920.638      -2926831.608
10 0 59920  24060.000000  0      -6102036.163       -520150.461      -3328399.267
10 0 59920  24120.000000  0      -5883946.568       -408978.462      -3715832.044
10 0 59920  24180.000000  0      -5640096.910       -298104.232      -4087496.382
10 0 59920  24240.000000  0      -5371538.477       -188216.727      -4441828.381
10 0 59920  24300.000000  0      -5079431.121        -79990.357      -4777340.198
10 0 59920  24360.000000  0      -4765037.836         25918.782      -5092626.099
10 0 59920  24420.000000  0      -4429718.849        128876.543      -5386368.112
10 0 59920  24480.000000  0      -4074925.307        228274.173      -5657341.178
10 0 59920  24540.000000  0      -3702192.648        323531.567      -5904417.867
10 0 59920  24600.000000  0      -3313133.681        414100.339      -6126572.624
10 0 59920  24660.000000  0      -2909431.432        499466.690      -6322885.551
10 0 59920  24720.000000  0      -2492831.816        579154.030      -6492545.823
10 0 59920  24780.000000  0      -2065135.985        652725.368      -6634854.702
10 0 59920  24840.000000  0      -1628192.511        719785.487      -6749227.986
10 0 59920  24900.000000  0      -1183889.482        779982.895      -6835198.010
10 0 59920  24960.000000  0       -734146.480        833011.498      -6892415.210
10 0 59920  25020.000000  0       -280906.501        878612.029      -6920649.232
10 0 59920  25080.000000  0        173872.133        916573.198      -6919789.672
10 0 59920  25140.000000  0        628223.953        946732.577      -6889846.507
10 0 59920  25200.000000  0       1080184.688        968977.254      -6830950.063
10 0 59920  25260.000000  0       1527799.591        983244.240      -6743350.362
10 0 59920  25320.000000  0       1969131.589        989520.574      -6627416.079
10 0 59920  25380.000000  0       2402269.460        987843.195      -6483633.161
10 0 59920  25440.000000  0       2825335.984        978298.550      -6312602.894
10 0 59920  25500.000000  0       3236495.842        961021.919      -6115039.513
10 0 59920  25560.000000  0       3633963.383        936196.477      -5891767.536
10 0 59920  25620.000000  0       4016010.317        904052.104      -5643718.653
10 0 59920  25680.000000  0       4380973.179        864863.943      -5371928.152
10 0 59920  25740.000000  0       4727260.615        818950.737      -5077530.993
10 0 59920  25800.000000  0       5053360.458        766672.923      -4761757.358
10 0 59920  25860.000000  0       5357846.429        708430.473      -4425927.823
10 0 59920  25920.000000  0       5639384.554        644660.506      -4071448.151
10 0 59920  25980.000000  0       5896739.215        575834.683      -3699803.687
10 0 59920  26040.000000  0       6128778.802        502456.418      -3312553.415
10 0 59920  26100.000000  0       6334481.007        425057.901      -2911323.684
10 0 59920  26160.000000  0       6512937.693        344196.940      -2497801.555
10 0 59920  26220.000000  0       6663359.276        260453.618      -2073727.791
10 0 59920  26280.000000  0       6785078.514        174426.816      -1640889.559
10 0 59920  26340.000000  0       6877553.750         86730.641      -1201112.910
10 0 59920  26400.000000  0       6940371.592         -2009.263       -756255.060
10 0 59920  26460.000000  0       6973249.016        -91159.462       -308196.512
10 0 59920  26520.000000  0       6976034.938       -180082.550        141166.949
10 0 59920  26580.000000  0       6948711.138       -268141.050        589932.473
10 0 59920  26640.000000  0       6891392.446       -354701.299       1036198.352
10 0 59920  26700.000000  0       6804326.435       -439137.299       1478072.192
10 0 59920  26760.000000  0       6687892.455       -520834.557       1913679.219
10 0 59920  26820.000000  0       6542599.934       -599193.841       2341170.443
10 0 59920  26880.000000  0       6369086.079       -673634.914       2758730.687
10 0 59920  26940.000000  0       6168112.940       -743600.111       3164586.435
10 0 59920  27000.000000  0       5940563.927       -808557.745       3557013.446
10 0 59920  27060.000000  0       5687439.885       -868005.412       3934344.148
10 0 59920  27120.000000  0       5409854.577       -921473.209       4294974.929
10 0 59920  27180.000000  0       5109029.461       -968526.692       4637372.995
10 0 59920  27240.000000  0       4786288.161      -1008769.631       4960082.870
10 0 59920  27300.000000  0       4443050.398      -1041846.527       5261732.612
10 0 59920  27360.000000  0       4080825.560      -1067444.850       5541039.560
10 0 59920  27420.000000  0       3701205.920      -1085297.131       5796815.761
10 0 59920  27480.000000  0       3305859.437      -1095182.796       6027972.972
10 0 59920  27540.000000  0       2896522.267      -1096929.697       6233527.157
10 0 59920  27600.000000  0       2474991.084      -1090415.392       6412602.570
10 0 59920  27660.000000  0       2043115.127      -1075568.183       6564435.490
10 0 59920  27720.000000  0       1602787.947      -1052367.853       6688377.433
10 0 59920  27780.000000  0       1155938.992      -1020846.101       6783897.840
10 0 59920  27840.000000  0        704525.092       -981086.679       6850586.251
10 0 59920  27900.000000  0        250521.892       -933225.265       6888154.039
10 0 59920  27960.000000  0       -204084.843       -877449.044       6896435.628
10 0 59920  28020.000000  0       -657307.872       -813996.027       6875389.241
10 0 59920  28080.000000  0      -1107167.196       -743154.062       6825097.219
10 0 59920  28140.000000  0      -1551698.745       -665259.544       6745765.764
10 0 59920  28200.000000  0      -1988962.958       -580695.856       6637724.214
10 0 59920  28260.000000  0      -2417053.293       -489891.564       6501423.885
10 0 59920  28320.000000  0      -2834104.658       -393318.300       6337436.403
10 0 59920  28380.000000  0      -3238301.700       -291488.405       6146451.521
10 0 59920  28440.000000  0      -3627886.903       -184952.346       5929274.449
10 0 59920  28500.000000  0      -4001168.511        -74295.866       5686822.666
10 0 59920  28560.000000  0      -4356528.152         39863.113       5420122.203
10 0 59920  28620.000000  0      -4692428.151        156877.745       5130303.449
10 0 59920  28680.000000  0      -5007418.519        276075.727       4818596.501
10 0 59920  28740.000000  0      -5300143.605        396762.981       4486326.032
99
